#dP2018  5  1  0  0  0.00000000      96 __u+U ITR00 FIT  IAC
## 1999 172800.00000000   900.00000000 58239 0.0000000000000
+   87   C01C02C03C04C05C06C07C08C09C10C11C12C13C14E01E02E03
+        E04E05E07E08E09E11E12E14E18E19E24E26E30G01G02G03G04
+        G05G06G07G08G09G10G11G12G13G14G15G16G17G18G19G20G21
+        G22G23G24G25G26G27G28G29G30G31G32J01J02J03R01R02R03
+        R04R07R08R09R10R11R13R14R15R16R17R18R19R20R21R22R23
+        R24R26  0  0  0  0  0  0  0  0  0  0  0  0  0  0  0
++         0  0  0  0  0  0  0  0  0  0  0  0  0  0  0  0  0
++         0  0  0  0  0  0  0  0  0  0  0  0  0  0  0  0  0
++         0  0  0  0  0  0  0  0  0  0  0  0  0  0  0  0  0
++         0  0  0  0  0  0  0  0  0  0  0  0  0  0  0  0  0
++         0  0  0  0  0  0  0  0  0  0  0  0  0  0  0  0  0
++         0  0  0  0  0  0  0  0  0  0  0  0  0  0  0  0  0
%c M  cc GPS ccc cccc cccc cccc cccc ccccc ccccc ccccc ccccc
%c cc cc ccc ccc cccc cccc cccc cccc ccccc ccccc ccccc ccccc
%f  0.0000000  0.000000000  0.00000000000  0.000000000000000
%f  0.0000000  0.000000000  0.00000000000  0.000000000000000
%i    0    0    0    0      0      0      0      0         0
%i    0    0    0    0      0      0      0      0         0
/*                                                          
/*   RSA / INFORMATION & ANALYSIS CENTER (IAC) OF MCC       
/*   ULTRA-RAPID DETERMINATION                              
/* PCV:IGS14_1992 OL/AL:FES2004  NONE     YN ORB:CoN CLK:CoN
*  2018 05 01  4 45  0.00000000
PC01 -32276.525340  27101.389563   1040.226224   -356.378005
PC02   4391.090197  41915.002288  -1174.434150    567.290378
PC03 -14789.604255  39441.303951    446.053196    324.789485
PC04 -39629.518027  14420.861705    397.537211   -196.014354
PC05  21900.176090  35980.886805  -1533.836082     30.807014
PC06  -9151.101843  35174.185107 -20822.424562      7.288431
PC07 -14640.009409  21822.381548  33014.998587    167.696063
PC08 -25786.456001  31471.353972 -11421.652376    315.048325
PC09    982.846244  41490.734866  -6172.046113   -170.860751
PC10   1628.592721  26590.091424  32841.039649   -198.013458
PC11  16670.898180  -1402.596229 -22266.499921   -489.711409
PC12   6625.495879  18410.596819 -19875.463994    429.781193
PC13 -13162.309979  32622.930959 -23390.301697   -311.856107
PC14  21173.963248   9645.642122  15428.930242    255.709020
PE01  -9138.060401 -17084.801171 -22383.265019   -334.211115
PE02   9166.892550  17077.360854  22363.339741     12.221902
PE03   7438.517889  28611.678175  -1579.707299    -27.039895
PE04 -17218.821260 -18123.280023 -15843.983808    -25.201088
PE05  -6753.114132  22369.934048 -18161.125210    274.143172
PE07  16959.619637  -3058.962360  24079.471326     40.880971
PE08  17312.063492  17991.583438  15914.854437   6593.726904
PE09 -16791.308712   3136.636770 -24161.031159   6804.822500
PE11 -23403.118686  12088.502011  13477.979814   1830.331731
PE12 -15640.942560  -6969.878962  24148.436417   4057.249993
PE14  19563.284719   6373.460914 -24806.656960   6590.339086
PE18 -12416.261421 -10766.090119  17471.826343   6241.981269
PE19  -6285.054913 -28729.929672   3401.953746     21.872117
PE24 -27540.315442    829.958164  10823.441027   6730.608250
PE26  17520.489293 -23429.030021   4524.124799   5988.947828
PE30  26021.952978  11543.936636   8082.974763   5876.982984
PG01  -1385.441853  16160.839048 -21114.915803    -44.494938
PG02  20781.786993 -15182.106079   6563.539207    128.680643
PG03   7836.039802  19940.507213 -15754.744098     61.578046
PG04 -21698.662127  -5231.753905  14363.225479     56.705028
PG05  12246.936021  -9977.088157  21273.126671     -8.802200
PG06  25111.558359  -5530.211474  -6671.359516    406.071421
PG07  15342.599030   9081.149332  20035.969788    199.002076
PG08  -4894.475876  25897.781550   2574.996144    -99.705195
PG09   9398.198337  18730.798958  16278.975580    512.759254
PG10 -23047.797778  -8893.031996  -9917.610186    182.399580
PG11  -2955.486445  21435.171092 -16053.441024   -736.937181
PG12  -4327.420539 -19456.296294 -17841.714475    336.419935
PG13  12411.022549 -21279.656140   9822.974093    -94.795429
PG14 -15590.858132   8983.941552 -19187.141041    -96.577821
PG15   2464.653086 -26173.736495   1564.558066   -354.821884
PG16 -12846.279690   7780.332971  21792.719202     26.159148
PG17  14587.548661    952.736020 -21783.914507   -102.177309
PG18  -9997.049196  18078.769323 -17043.720002      3.512981
PG19  15763.840877  -6947.093335 -20558.959362   -439.730564
PG20 -17020.310073 -18291.914893   9018.027326    507.102916
PG21 -18104.345176  -6723.281759  19036.183093   -400.750829
PG22   -809.131564  17468.814558 -19748.969957   -376.334204
PG23   1152.672678  25729.454887   5764.238312   -217.520821
PG24   4675.210607 -17640.822480 -19318.053306    -49.169580
PG25 -16671.480646 -19460.769057  -7621.341541   -578.070788
PG26 -20203.082463    242.263047  17297.579292   -164.378612
PG27 -12077.695693  18684.536091  14232.252425    369.814905
PG28  21556.659869  13470.947651  -6990.892034    711.221659
PG29  -5749.408680 -21395.602999  14644.648497    457.462843
PG30  22379.953926   2926.062440  14131.354328     79.028843
PG31 -25620.414079   6015.067369  -4948.380270    124.764128
PG32 -15166.934233  -1760.371213 -21697.565616   -514.958170
PJ01 -22519.392256  19011.344650 -25517.716866   -281.129039
PJ02 -30697.650821  24090.773237  20741.190876    -23.568799
PJ03 -27826.107258  25987.206738  23158.643210    -15.757415
PR01 -10765.574047   3299.165563 -22880.485886     25.588358
PR02   1483.141839  19787.910864 -15956.821708    307.528181
PR03  11673.566950  22652.841472    453.443771    130.935173
PR04  15022.736949  11877.871998  16861.902253    259.217496
PR07 -11794.048844 -22624.823401   -750.172620    -36.468288
PR08 -15024.549953 -12530.894842 -16313.253192     23.342369
PR09   6654.395969 -10355.281318 -22341.818005     30.614469
PR10 -12371.217127 -10040.336891 -19918.160712     23.557443
PR11 -24594.759756  -4134.996855  -5240.969195    -27.732727
PR13  -6099.388124  10256.467683  22519.954221     -9.951106
PR14  12273.050266  10232.010203  19892.712145     26.824918
PR15  23091.932422   5739.618543   9055.053453     -9.539107
PR16  22331.858647  -4403.123432 -11425.432063     91.478080
PR17     74.028855  16271.789782 -19643.853160    128.940477
PR18  11438.916135   1536.599637 -22740.712613    193.901563
PR19  16857.681784 -13925.110774 -13141.372553    -51.366181
PR20  12143.345020 -21800.980414   5434.454413   -336.331136
PR21   -296.212458 -15996.804802  19862.817769     18.414107
PR22 -12309.107379    190.263367  22322.708309    -39.306527
PR23 -16531.680183  16742.319382   9833.987264    150.947534
PR24 -11244.770089  22002.286134  -6311.744794   -165.700367
PR26  11988.369185 -21981.712352   4838.879642     16.524186
EOF
